{
  "type": "FeatureCollection",
  "features": [
    {
      "type": "Feature",
      "properties": {
        "norad_id": 39586,
        "name": "COSMOS 2251 DEB",
        "group": "cosmos-2251-debris",
        "lat": 49.52713237943882,
        "lon": -97.60738299281606,
        "alt_km": 755.8373158078039,
        "timestamp": "2025-12-04T15:47:54.497519+00:00",
        "meta_object_name": "COSMOS 2251 DEB",
        "meta_object_id": "1993-036BUR",
        "meta_epoch": "2025-12-04T00:26:07.876608",
        "meta_mean_motion": 14.21195867,
        "meta_eccentricity": 0.01003221,
        "meta_inclination": 74.0095,
        "meta_ra_of_asc_node": 243.9042,
        "meta_arg_of_pericenter": 20.3845,
        "meta_mean_anomaly": 357.5964,
        "meta_ephemeris_type": 0,
        "meta_classification_type": "U",
        "meta_norad_cat_id": 39586,
        "meta_element_set_no": 999,
        "meta_rev_at_epoch": 60848,
        "meta_bstar": 0.00088936605,
        "meta_mean_motion_dot": 2.011e-05,
        "meta_mean_motion_ddot": 0,
        "tle_line1": "1 39586U 93036BUR 25338.01814672  .00002011  00000+0  88937-3 0  9993",
        "tle_line2": "2 39586  74.0095 243.9042 0100322  20.3845 357.5964 14.21195867608481"
      },
      "geometry": {
        "type": "Point",
        "coordinates": [
          -97.60738299281606,
          49.52713237943882
        ]
      }
    },
    {
      "type": "Feature",
      "properties": {
        "norad_id": 39591,
        "name": "COSMOS 2251 DEB",
        "group": "cosmos-2251-debris",
        "lat": 58.19109226683519,
        "lon": -70.73516442467219,
        "alt_km": 732.0725125589461,
        "timestamp": "2025-12-04T15:47:54.497529+00:00",
        "meta_object_name": "COSMOS 2251 DEB",
        "meta_object_id": "1993-036BUW",
        "meta_epoch": "2025-12-02T01:57:06.430752",
        "meta_mean_motion": 14.41775079,
        "meta_eccentricity": 0.00288186,
        "meta_inclination": 74.0265,
        "meta_ra_of_asc_node": 266.5373,
        "meta_arg_of_pericenter": 22.6115,
        "meta_mean_anomaly": 349.3407,
        "meta_ephemeris_type": 0,
        "meta_classification_type": "U",
        "meta_norad_cat_id": 39591,
        "meta_element_set_no": 999,
        "meta_rev_at_epoch": 61623,
        "meta_bstar": 0.00055457771,
        "meta_mean_motion_dot": 1.794e-05,
        "meta_mean_motion_ddot": 0,
        "tle_line1": "1 39591U 93036BUW 25336.08132443  .00001794  00000+0  55458-3 0  9992",
        "tle_line2": "2 39591  74.0265 266.5373 0028818  22.6115 349.3407 14.41775079616232"
      },
      "geometry": {
        "type": "Point",
        "coordinates": [
          -70.73516442467219,
          58.19109226683519
        ]
      }
    },
    {
      "type": "Feature",
      "properties": {
        "norad_id": 40218,
        "name": "COSMOS 2251 DEB",
        "group": "cosmos-2251-debris",
        "lat": -35.896917324494126,
        "lon": -108.15855346745839,
        "alt_km": 748.8133417656481,
        "timestamp": "2025-12-04T15:47:54.497540+00:00",
        "meta_object_name": "COSMOS 2251 DEB",
        "meta_object_id": "1993-036BUX",
        "meta_epoch": "2025-12-02T02:20:48.132384",
        "meta_mean_motion": 14.41546301,
        "meta_eccentricity": 0.00163619,
        "meta_inclination": 74.0309,
        "meta_ra_of_asc_node": 268.5457,
        "meta_arg_of_pericenter": 353.795,
        "meta_mean_anomaly": 6.3,
        "meta_ephemeris_type": 0,
        "meta_classification_type": "U",
        "meta_norad_cat_id": 40218,
        "meta_element_set_no": 999,
        "meta_rev_at_epoch": 58708,
        "meta_bstar": 0.00047133972,
        "meta_mean_motion_dot": 1.508e-05,
        "meta_mean_motion_ddot": 0,
        "tle_line1": "1 40218U 93036BUX 25336.09777931  .00001508  00000+0  47134-3 0  9993",
        "tle_line2": "2 40218  74.0309 268.5457 0016361 353.7950   6.3000 14.41546301587082"
      },
      "geometry": {
        "type": "Point",
        "coordinates": [
          -108.15855346745839,
          -35.896917324494126
        ]
      }
    },
    {
      "type": "Feature",
      "properties": {
        "norad_id": 40223,
        "name": "COSMOS 2251 DEB",
        "group": "cosmos-2251-debris",
        "lat": -47.88449295279317,
        "lon": 86.71606311154508,
        "alt_km": 558.418359982038,
        "timestamp": "2025-12-04T15:47:54.497550+00:00",
        "meta_object_name": "COSMOS 2251 DEB",
        "meta_object_id": "1993-036BVC",
        "meta_epoch": "2025-11-30T19:57:11.530080",
        "meta_mean_motion": 15.01298074,
        "meta_eccentricity": 0.00135518,
        "meta_inclination": 73.9359,
        "meta_ra_of_asc_node": 113.1436,
        "meta_arg_of_pericenter": 301.616,
        "meta_mean_anomaly": 209.1518,
        "meta_ephemeris_type": 0,
        "meta_classification_type": "U",
        "meta_norad_cat_id": 40223,
        "meta_element_set_no": 999,
        "meta_rev_at_epoch": 59195,
        "meta_bstar": 0.0064717069,
        "meta_mean_motion_dot": 0.0008441,
        "meta_mean_motion_ddot": 0,
        "tle_line1": "1 40223U 93036BVC 25334.83138345  .00084410  00000+0  64717-2 0  9997",
        "tle_line2": "2 40223  73.9359 113.1436 0013551 301.6160 209.1518 15.01298074591952"
      },
      "geometry": {
        "type": "Point",
        "coordinates": [
          86.71606311154508,
          -47.88449295279317
        ]
      }
    },
    {
      "type": "Feature",
      "properties": {
        "norad_id": 40228,
        "name": "COSMOS 2251 DEB",
        "group": "cosmos-2251-debris",
        "lat": -47.3775545247655,
        "lon": 113.56872728898226,
        "alt_km": 767.0017025970601,
        "timestamp": "2025-12-04T15:47:54.497561+00:00",
        "meta_object_name": "COSMOS 2251 DEB",
        "meta_object_id": "1993-036BVH",
        "meta_epoch": "2025-11-30T14:54:47.611296",
        "meta_mean_motion": 14.40947575,
        "meta_eccentricity": 0.0023645,
        "meta_inclination": 74.0546,
        "meta_ra_of_asc_node": 282.9283,
        "meta_arg_of_pericenter": 346.4377,
        "meta_mean_anomaly": 191.0914,
        "meta_ephemeris_type": 0,
        "meta_classification_type": "U",
        "meta_norad_cat_id": 40228,
        "meta_element_set_no": 999,
        "meta_rev_at_epoch": 58746,
        "meta_bstar": 0.00037702,
        "meta_mean_motion_dot": 1.188e-05,
        "meta_mean_motion_ddot": 0,
        "tle_line1": "1 40228U 93036BVH 25334.62138439  .00001188  00000+0  37702-3 0  9999",
        "tle_line2": "2 40228  74.0546 282.9283 0023645 346.4377 191.0914 14.40947575587463"
      },
      "geometry": {
        "type": "Point",
        "coordinates": [
          113.56872728898226,
          -47.3775545247655
        ]
      }
    },
    {
      "type": "Feature",
      "properties": {
        "norad_id": 40230,
        "name": "COSMOS 2251 DEB",
        "group": "cosmos-2251-debris",
        "lat": 27.528130807687685,
        "lon": 53.46645143338912,
        "alt_km": 738.3073248348855,
        "timestamp": "2025-12-04T15:47:54.497571+00:00",
        "meta_object_name": "COSMOS 2251 DEB",
        "meta_object_id": "1993-036BVK",
        "meta_epoch": "2025-12-01T11:25:53.279904",
        "meta_mean_motion": 14.49219846,
        "meta_eccentricity": 0.00191733,
        "meta_inclination": 74.0459,
        "meta_ra_of_asc_node": 248.0026,
        "meta_arg_of_pericenter": 306.9288,
        "meta_mean_anomaly": 170.1054,
        "meta_ephemeris_type": 0,
        "meta_classification_type": "U",
        "meta_norad_cat_id": 40230,
        "meta_element_set_no": 999,
        "meta_rev_at_epoch": 58808,
        "meta_bstar": 0.00090515824,
        "meta_mean_motion_dot": 3.43e-05,
        "meta_mean_motion_ddot": 0,
        "tle_line1": "1 40230U 93036BVK 25335.47631111  .00003430  00000+0  90516-3 0  9995",
        "tle_line2": "2 40230  74.0459 248.0026 0019173 306.9288 170.1054 14.49219846588084"
      },
      "geometry": {
        "type": "Point",
        "coordinates": [
          53.46645143338912,
          27.528130807687685
        ]
      }
    },
    {
      "type": "Feature",
      "properties": {
        "norad_id": 40233,
        "name": "COSMOS 2251 DEB",
        "group": "cosmos-2251-debris",
        "lat": 65.58406708983624,
        "lon": 157.9687987971588,
        "alt_km": 709.901332403896,
        "timestamp": "2025-12-04T15:47:54.497581+00:00",
        "meta_object_name": "COSMOS 2251 DEB",
        "meta_object_id": "1993-036BVN",
        "meta_epoch": "2025-12-04T02:17:52.292832",
        "meta_mean_motion": 14.58236674,
        "meta_eccentricity": 0.00461905,
        "meta_inclination": 73.9387,
        "meta_ra_of_asc_node": 119.6526,
        "meta_arg_of_pericenter": 195.886,
        "meta_mean_anomaly": 164.0859,
        "meta_ephemeris_type": 0,
        "meta_classification_type": "U",
        "meta_norad_cat_id": 40233,
        "meta_element_set_no": 999,
        "meta_rev_at_epoch": 59011,
        "meta_bstar": 0.0029314151,
        "meta_mean_motion_dot": 0.00013736,
        "meta_mean_motion_ddot": 0,
        "tle_line1": "1 40233U 93036BVN 25338.09574413  .00013736  00000+0  29314-2 0  9997",
        "tle_line2": "2 40233  73.9387 119.6526 0046190 195.8860 164.0859 14.58236674590113"
      },
      "geometry": {
        "type": "Point",
        "coordinates": [
          157.9687987971588,
          65.58406708983624
        ]
      }
    }
  ]
}